[{"OBJECT_NAME":"STARLINK-31399","OBJECT_ID":"2024-064U","EPOCH":"2026-03-09T23:45:15.858432","MEAN_MOTION":15.27558367,"ECCENTRICITY":0.00023887,"INCLINATION":43.0024,"RA_OF_ASC_NODE":54.3007,"ARG_OF_PERICENTER":299.8339,"MEAN_ANOMALY":60.2275,"EPHEMERIS_TYPE":0,"CLASSIFICATION_TYPE":"U","NORAD_CAT_ID":59416,"ELEMENT_SET_NO":999,"REV_AT_EPOCH":10927,"BSTAR":-7.9740352e-5,"MEAN_MOTION_DOT":-2.455e-5,"MEAN_MOTION_DDOT":0},{"OBJECT_NAME":"OBJECT B","OBJECT_ID":"2024-203B","EPOCH":"2026-03-09T23:52:52.928256","MEAN_MOTION":15.27506959,"ECCENTRICITY":0.00103904,"INCLINATION":97.4268,"RA_OF_ASC_NODE":139.5887,"ARG_OF_PERICENTER":321.1475,"MEAN_ANOMALY":38.9016,"EPHEMERIS_TYPE":0,"CLASSIFICATION_TYPE":"U","NORAD_CAT_ID":61870,"ELEMENT_SET_NO":999,"REV_AT_EPOCH":7381,"BSTAR":0.00063263842,"MEAN_MOTION_DOT":0.00016997,"MEAN_MOTION_DDOT":0}]
